OSCAR 31                
1 19420U 88074B   26095.79395786  .00000112  00000+0  17885-3 0  9994
2 19420  90.0470  21.0258 0092359 275.4993 137.6439 13.42602387841814
