[{"OBJECT_NAME":"OSCAR 31","OBJECT_ID":"1988-074B","EPOCH":"2026-04-05T19:03:17.959104","MEAN_MOTION":13.42602387,"ECCENTRICITY":0.0092359,"INCLINATION":90.047,"RA_OF_ASC_NODE":21.0258,"ARG_OF_PERICENTER":275.4993,"MEAN_ANOMALY":137.6439,"EPHEMERIS_TYPE":0,"CLASSIFICATION_TYPE":"U","NORAD_CAT_ID":19420,"ELEMENT_SET_NO":999,"REV_AT_EPOCH":84181,"BSTAR":0.00017885,"MEAN_MOTION_DOT":1.12e-6,"MEAN_MOTION_DDOT":0}]
